{"type": "FeatureCollection", "features": [ {"type": "Feature", "properties": {"norad_id": 37594, "name": "FENGYUN 1C DEB", "group": "fengyun-1c-debris", "lat": 20.35841496133315, "lon": -147.29370731613463, "alt_km": 835.1287259515511, "timestamp": "2025-12-26T11:25:45.482425+00:00", "meta": {"OBJECT_NAME": "FENGYUN 1C DEB", "OBJECT_ID": "1999-025EKN", "EPOCH": "2025-12-23T12:53:53.738592", "MEAN_MOTION": 14.11128547, "ECCENTRICITY": 0.00852864, "INCLINATION": 98.7335, "RA_OF_ASC_NODE": 26.5783, "ARG_OF_PERICENTER": 238.8668, "MEAN_ANOMALY": 120.4117, "EPHEMERIS_TYPE": 0, "CLASSIFICATION_TYPE": "U", "NORAD_CAT_ID": 37594, "ELEMENT_SET_NO": 999, "REV_AT_EPOCH": 77914, "BSTAR": 0.00023559331, "MEAN_MOTION_DOT": 3.96e-06, "MEAN_MOTION_DDOT": 0}, "tle": {"line1": "1 37594U 99025EKN 25357.53742753  .00000396  00000+0  23559-3 0  9995", "line2": "2 37594  98.7335  26.5783 0085286 238.8668 120.4117 14.11128547779144"}}, "geometry": {"type": "Point", "coordinates": [-147.29370731613463, 20.35841496133315]}}, {"type": "Feature", "properties": {"norad_id": 37595, "name": "FENGYUN 1C DEB", "group": "fengyun-1c-debris", "lat": -21.677394025576277, "lon": 27.659546866535763, "alt_km": 671.7033308301643, "timestamp": "2025-12-26T11:25:45.482433+00:00", "meta": {"OBJECT_NAME": "FENGYUN 1C DEB", "OBJECT_ID": "1999-025EKP", "EPOCH": "2025-12-23T19:12:19.083168", "MEAN_MOTION": 14.71564982, "ECCENTRICITY": 0.00285537, "INCLINATION": 99.0458, "RA_OF_ASC_NODE": 208.3187, "ARG_OF_PERICENTER": 332.5627, "MEAN_ANOMALY": 100.7823, "EPHEMERIS_TYPE": 0, "CLASSIFICATION_TYPE": "U", "NORAD_CAT_ID": 37595, "ELEMENT_SET_NO": 999, "REV_AT_EPOCH": 62768, "BSTAR": 0.0037494781, "MEAN_MOTION_DOT": 0.00023466, "MEAN_MOTION_DDOT": 0}, "tle": {"line1": "1 37595U 99025EKP 25357.80022087  .00023466  00000+0  37495-2 0  9993", "line2": "2 37595  99.0458 208.3187 0028553 332.5627 100.7823 14.71564982627683"}}, "geometry": {"type": "Point", "coordinates": [27.659546866535763, -21.677394025576277]}}, {"type": "Feature", "properties": {"norad_id": 37600, "name": "FENGYUN 1C DEB", "group": "fengyun-1c-debris", "lat": 13.10892719186111, "lon": 154.40541466891565, "alt_km": 693.9900794660543, "timestamp": "2025-12-26T11:25:45.482442+00:00", "meta": {"OBJECT_NAME": "FENGYUN 1C DEB", "OBJECT_ID": "1999-025EKU", "EPOCH": "2025-12-24T03:47:47.081184", "MEAN_MOTION": 13.82645296, "ECCENTRICITY": 0.03566234, "INCLINATION": 98.933, "RA_OF_ASC_NODE": 154.3007, "ARG_OF_PERICENTER": 18.485, "MEAN_ANOMALY": 342.8887, "EPHEMERIS_TYPE": 0, "CLASSIFICATION_TYPE": "U", "NORAD_CAT_ID": 37600, "ELEMENT_SET_NO": 999, "REV_AT_EPOCH": 88645, "BSTAR": 0.0028552433, "MEAN_MOTION_DOT": 5.014e-05, "MEAN_MOTION_DDOT": 0}, "tle": {"line1": "1 37600U 99025EKU 25358.15818381  .00005014  00000+0  28552-2 0  9992", "line2": "2 37600  98.9330 154.3007 0356623  18.4850 342.8887 13.82645296886458"}}, "geometry": {"type": "Point", "coordinates": [154.40541466891565, 13.10892719186111]}}, {"type": "Feature", "properties": {"norad_id": 37683, "name": "FENGYUN 1C DEB", "group": "fengyun-1c-debris", "lat": -6.028479806446745, "lon": -81.82641490020973, "alt_km": 1163.4273569599, "timestamp": "2025-12-26T11:25:45.482451+00:00", "meta": {"OBJECT_NAME": "FENGYUN 1C DEB", "OBJECT_ID": "1999-025EKY", "EPOCH": "2025-12-22T12:45:28.700352", "MEAN_MOTION": 13.31943553, "ECCENTRICITY": 0.05857029, "INCLINATION": 98.0031, "RA_OF_ASC_NODE": 274.2271, "ARG_OF_PERICENTER": 100.084, "MEAN_ANOMALY": 76.0427, "EPHEMERIS_TYPE": 0, "CLASSIFICATION_TYPE": "U", "NORAD_CAT_ID": 37683, "ELEMENT_SET_NO": 999, "REV_AT_EPOCH": 29370, "BSTAR": 0.0017018804, "MEAN_MOTION_DOT": 2.128e-05, "MEAN_MOTION_DDOT": 0}, "tle": {"line1": "1 37683U 99025EKY 25356.53158218  .00002128  00000+0  17019-2 0  9998", "line2": "2 37683  98.0031 274.2271 0585702 100.0840  76.0427 13.31943553293709"}}, "geometry": {"type": "Point", "coordinates": [-81.82641490020973, -6.028479806446745]}}, {"type": "Feature", "properties": {"norad_id": 37686, "name": "FENGYUN 1C DEB", "group": "fengyun-1c-debris", "lat": -10.179806501540806, "lon": -164.29846816751237, "alt_km": 1427.57336179301, "timestamp": "2025-12-26T11:25:45.482460+00:00", "meta": {"OBJECT_NAME": "FENGYUN 1C DEB", "OBJECT_ID": "1999-025ELB", "EPOCH": "2025-12-15T20:02:19.291200", "MEAN_MOTION": 13.35366399, "ECCENTRICITY": 0.03959537, "INCLINATION": 99.0216, "RA_OF_ASC_NODE": 7.9106, "ARG_OF_PERICENTER": 34.5937, "MEAN_ANOMALY": 145.9696, "EPHEMERIS_TYPE": 0, "CLASSIFICATION_TYPE": "U", "NORAD_CAT_ID": 37686, "ELEMENT_SET_NO": 999, "REV_AT_EPOCH": 60668, "BSTAR": 0.00056833835, "MEAN_MOTION_DOT": 4.14e-06, "MEAN_MOTION_DDOT": 0}, "tle": {"line1": "1 37686U 99025ELB 25349.83494550  .00000414  00000+0  56834-3 0  9993", "line2": "2 37686  99.0216   7.9106 0395953  34.5937 145.9696 13.35366399606681"}}, "geometry": {"type": "Point", "coordinates": [-164.29846816751237, -10.179806501540806]}}, {"type": "Feature", "properties": {"norad_id": 37687, "name": "FENGYUN 1C DEB", "group": "fengyun-1c-debris", "lat": -7.533461640087367, "lon": -147.16821394996072, "alt_km": 1111.0884061019751, "timestamp": "2025-12-26T11:25:45.482469+00:00", "meta": {"OBJECT_NAME": "FENGYUN 1C DEB", "OBJECT_ID": "1999-025ELC", "EPOCH": "2025-12-24T08:18:17.269344", "MEAN_MOTION": 13.85435781, "ECCENTRICITY": 0.03336335, "INCLINATION": 98.2045, "RA_OF_ASC_NODE": 32.0557, "ARG_OF_PERICENTER": 326.5456, "MEAN_ANOMALY": 45.1288, "EPHEMERIS_TYPE": 0, "CLASSIFICATION_TYPE": "U", "NORAD_CAT_ID": 37687, "ELEMENT_SET_NO": 999, "REV_AT_EPOCH": 83415, "BSTAR": 0.0031735951, "MEAN_MOTION_DOT": 5.552e-05, "MEAN_MOTION_DDOT": 0}, "tle": {"line1": "1 37687U 99025ELC 25358.34603321  .00005552  00000+0  31736-2 0  9999", "line2": "2 37687  98.2045  32.0557 0333633 326.5456  45.1288 13.85435781834159"}}, "geometry": {"type": "Point", "coordinates": [-147.16821394996072, -7.533461640087367]}}, {"type": "Feature", "properties": {"norad_id": 37689, "name": "FENGYUN 1C DEB", "group": "fengyun-1c-debris", "lat": 69.9109033997551, "lon": -112.40696020367109, "alt_km": 723.0884510166015, "timestamp": "2025-12-26T11:25:45.482477+00:00", "meta": {"OBJECT_NAME": "FENGYUN 1C DEB", "OBJECT_ID": "1999-025ELE", "EPOCH": "2025-12-25T08:24:43.484256", "MEAN_MOTION": 14.48852794, "ECCENTRICITY": 0.0021332, "INCLINATION": 98.9188, "RA_OF_ASC_NODE": 40.9768, "ARG_OF_PERICENTER": 203.6684, "MEAN_ANOMALY": 156.3528, "EPHEMERIS_TYPE": 0, "CLASSIFICATION_TYPE": "U", "NORAD_CAT_ID": 37689, "ELEMENT_SET_NO": 999, "REV_AT_EPOCH": 57995, "BSTAR": 0.0024353, "MEAN_MOTION_DOT": 9.195e-05, "MEAN_MOTION_DDOT": 0}, "tle": {"line1": "1 37689U 99025ELE 25359.35050329  .00009195  00000+0  24353-2 0  9991", "line2": "2 37689  98.9188  40.9768 0021332 203.6684 156.3528 14.48852794579959"}}, "geometry": {"type": "Point", "coordinates": [-112.40696020367109, 69.9109033997551]}}, {"type": "Feature", "properties": {"norad_id": 37691, "name": "FENGYUN 1C DEB", "group": "fengyun-1c-debris", "lat": -71.49913051140621, "lon": -69.62294084115216, "alt_km": 905.4186674357334, "timestamp": "2025-12-26T11:25:45.482494+00:00", "meta": {"OBJECT_NAME": "FENGYUN 1C DEB", "OBJECT_ID": "1999-025ELG", "EPOCH": "2025-12-23T11:18:15.800544", "MEAN_MOTION": 14.57881379, "ECCENTRICITY": 0.0280399, "INCLINATION": 98.3725, "RA_OF_ASC_NODE": 261.2362, "ARG_OF_PERICENTER": 116.8405, "MEAN_ANOMALY": 246.1757, "EPHEMERIS_TYPE": 0, "CLASSIFICATION_TYPE": "U", "NORAD_CAT_ID": 37691, "ELEMENT_SET_NO": 999, "REV_AT_EPOCH": 85790, "BSTAR": 0.0015359488, "MEAN_MOTION_DOT": 0.00012112, "MEAN_MOTION_DDOT": 0}, "tle": {"line1": "1 37691U 99025ELG 25357.47101621  .00012112  00000+0  15359-2 0  9996", "line2": "2 37691  98.3725 261.2362 0280399 116.8405 246.1757 14.57881379857904"}}, "geometry": {"type": "Point", "coordinates": [-69.62294084115216, -71.49913051140621]}}, {"type": "Feature", "properties": {"norad_id": 37693, "name": "FENGYUN 1C DEB", "group": "fengyun-1c-debris", "lat": 77.38847729479413, "lon": -43.36923940630303, "alt_km": 819.7037558977381, "timestamp": "2025-12-26T11:25:45.482503+00:00", "meta": {"OBJECT_NAME": "FENGYUN 1C DEB", "OBJECT_ID": "1999-025ELJ", "EPOCH": "2025-12-24T12:01:58.795680", "MEAN_MOTION": 14.08514338, "ECCENTRICITY": 0.00721892, "INCLINATION": 98.6932, "RA_OF_ASC_NODE": 357.8702, "ARG_OF_PERICENTER": 41.8803, "MEAN_ANOMALY": 110.2059, "EPHEMERIS_TYPE": 0, "CLASSIFICATION_TYPE": "U", "NORAD_CAT_ID": 37693, "ELEMENT_SET_NO": 999, "REV_AT_EPOCH": 62314, "BSTAR": 0.00060814619, "MEAN_MOTION_DOT": 1.027e-05, "MEAN_MOTION_DDOT": 0}, "tle": {"line1": "1 37693U 99025ELJ 25358.50137495  .00001027  00000+0  60815-3 0  9992", "line2": "2 37693  98.6932 357.8702 0072189  41.8803 110.2059 14.08514338623141"}}, "geometry": {"type": "Point", "coordinates": [-43.36923940630303, 77.38847729479413]}}, {"type": "Feature", "properties": {"norad_id": 37694, "name": "FENGYUN 1C DEB", "group": "fengyun-1c-debris", "lat": -35.386855112721506, "lon": -118.8599236984598, "alt_km": 943.4379054092888, "timestamp": "2025-12-26T11:25:45.482512+00:00", "meta": {"OBJECT_NAME": "FENGYUN 1C DEB", "OBJECT_ID": "1999-025ELK", "EPOCH": "2025-12-14T10:20:27.757248", "MEAN_MOTION": 14.16668534, "ECCENTRICITY": 0.01472645, "INCLINATION": 98.1988, "RA_OF_ASC_NODE": 55.9107, "ARG_OF_PERICENTER": 88.6122, "MEAN_ANOMALY": 288.1431, "EPHEMERIS_TYPE": 0, "CLASSIFICATION_TYPE": "U", "NORAD_CAT_ID": 37694, "ELEMENT_SET_NO": 999, "REV_AT_EPOCH": 51728, "BSTAR": 0.0018272074, "MEAN_MOTION_DOT": 4.021e-05, "MEAN_MOTION_DDOT": 0}, "tle": {"line1": "1 37694U 99025ELK 25348.43087682  .00004021  00000+0  18272-2 0  9992", "line2": "2 37694  98.1988  55.9107 0147264  88.6122 288.1431 14.16668534517286"}}, "geometry": {"type": "Point", "coordinates": [-118.8599236984598, -35.386855112721506]}}]}